OBJECT_NAME,OBJECT_ID,EPOCH,MEAN_MOTION,ECCENTRICITY,INCLINATION,RA_OF_ASC_NODE,ARG_OF_PERICENTER,MEAN_ANOMALY,EPHEMERIS_TYPE,CLASSIFICATION_TYPE,NORAD_CAT_ID,ELEMENT_SET_NO,REV_AT_EPOCH,BSTAR,MEAN_MOTION_DOT,MEAN_MOTION_DDOT
COSMOS 2058,1990-010A,2026-07-12T05:11:02.385312,15.12146879,.00077993,82.4673,284.6708,262.3168,97.7177,0,U,20465,999,96105,.80663447E-4,.142E-4,0
SL-14 R/B,1990-010B,2026-07-11T20:26:44.504736,14.83661917,.00182571,82.5033,150.7818,249.1641,110.7619,0,U,20466,999,94689,.22503005E-4,.21E-5,0
SL-14 R/B,1990-018B,2026-07-12T04:36:11.352384,14.82232884,.00172397,82.5220,106.7376,46.1199,314.1435,0,U,20511,999,94102,.23652433E-4,.213E-5,0
HST,1990-037B,2026-07-11T15:42:33.863904,15.31037779,.00020833,28.4731,273.3159,72.1261,287.9563,0,U,20580,999,79232,.12505169E-3,.409E-4,0
SL-16 R/B,1990-046B,2026-07-11T23:20:56.193504,14.15023251,.00124517,70.9983,36.8922,120.0201,240.2159,0,U,20625,999,86597,.8140709E-4,.11E-5,0
COSMOS 2084,1990-055A,2026-07-12T05:22:27.204672,15.06217134,.00077041,62.7888,270.6307,315.3139,44.7340,0,U,20663,999,95507,.79189215E-4,.964E-5,0
SL-6 R/B(2),1990-055D,2026-07-11T23:33:13.443840,15.04079972,.00446215,62.7801,190.9985,8.5682,351.6169,0,U,20666,999,95688,.88953274E-4,.1054E-4,0
SL-8 R/B,1990-078B,2026-07-12T06:16:01.181856,14.93507034,.03440079,82.9025,138.9674,313.5398,43.7707,0,U,20775,999,82786,.36077527E-3,.12737E-3,0
SL-8 R/B,1991-006B,2026-07-12T03:26:15.073728,13.77508751,.00235777,82.9412,77.4672,48.6552,114.2035,0,U,21088,999,78120,.55864022E-4,.71E-6,0
OKEAN-3,1991-039A,2026-07-12T06:20:42.403488,15.05424473,.00121905,82.5139,216.0609,265.7638,94.2196,0,U,21397,999,88377,.10610233E-3,.1552E-4,0
COSMOS 2151,1991-042A,2026-07-12T08:01:16.810176,15.00508777,.00122407,82.4978,323.4117,5.2003,354.9346,0,U,21422,999,88188,.55976822E-4,.733E-5,0
SL-14 R/B,1991-042B,2026-07-12T04:53:15.493920,14.81917065,.00167121,82.4934,103.4370,186.7796,173.3195,0,U,21423,999,87151,.19492873E-4,.178E-5,0
ERS-1,1991-050A,2026-07-12T01:09:44.961120,14.39531547,.00316879,98.7795,214.3535,191.1372,168.9117,0,U,21574,999,83362,.60603008E-4,.144E-5,0
ARIANE 40 R/B,1991-050F,2026-07-12T03:37:21.196128,14.42970859,.00042639,98.1864,240.5938,68.0686,292.0958,0,U,21610,999,83694,.50411916E-4,.127E-5,0
INTERCOSMOS 25,1991-086A,2026-07-12T00:56:10.009536,12.12238085,.14844144,82.6013,234.7710,208.7377,142.3468,0,U,21819,999,51175,.12612465E-3,.648E-5,0
SL-8 R/B,1992-008B,2026-07-11T21:55:37.394400,13.75983091,.0035469,82.9270,175.4030,145.5721,233.3019,0,U,21876,999,72650,.10133E-3,.114E-5,0
SL-8 R/B,1992-020B,2026-07-12T02:16:30.676800,13.75550283,.00280791,82.9287,61.3543,312.6073,199.8214,0,U,21938,999,71823,.17834711E-4,.32E-6,0
USA 81,1992-023A,2026-07-12T01:46:13.055808,14.32404401,.00021139,85.0053,59.6411,65.7884,294.3530,0,U,21949,999,11259,.32821075E-4,.109E-5,0
COSMOS 2219,1992-076A,2026-07-12T03:51:37.312992,14.14109574,.00180718,71.0615,117.8665,2.1853,357.9345,0,U,22219,999,73597,-.65874303E-4,-.173E-5,0
SL-16 R/B,1992-076B,2026-07-12T05:26:40.367904,14.16876117,.0015006,71.0006,286.0344,265.8732,120.1778,0,U,22220,999,73947,.13807081E-3,.229E-5,0
COSMOS 2221,1992-080A,2026-07-11T21:04:00.151392,14.96598168,.00155109,82.5044,160.1085,130.3175,229.9405,0,U,22236,999,79936,.7849876E-4,.922E-5,0
SL-16 R/B,1992-093B,2026-07-12T04:31:47.362368,14.15466713,.00024129,71.0222,102.9067,142.0731,218.0562,0,U,22285,999,73077,-.64016569E-4,-.173E-5,0
COSMOS 2228,1992-094A,2026-07-12T06:38:12.135840,14.97670190,.00161491,82.5189,118.0114,239.7959,120.1665,0,U,22286,999,79470,.85138654E-4,.1025E-4,0
SL-16 R/B,1993-016B,2026-07-11T17:56:14.843328,14.15311538,.00089698,71.0084,314.6220,144.2267,215.9459,0,U,22566,999,71972,.29136258E-4,.9E-7,0
COSMOS 2242,1993-024A,2026-07-12T07:32:39.145344,14.96979434,.0014488,82.5197,147.5028,243.3080,116.6660,0,U,22626,999,79903,.79074424E-4,.937E-5,0
SL-16 R/B,1993-059B,2026-07-11T23:33:00.911520,14.17250340,.00164759,70.9905,109.0183,13.3502,346.8054,0,U,22803,999,69714,-.10050861E-3,-.251E-5,0
ARIANE 40 R/B,1993-061H,2026-07-12T04:53:28.385664,14.32917815,.00094684,98.4808,259.5398,275.6370,84.3735,0,U,22830,999,71193,.43684049E-4,.76E-6,0
COSMOS 2278,1994-023A,2026-07-12T05:05:20.917824,14.14393403,.00098036,71.0527,274.5679,210.1711,149.8848,0,U,23087,999,66241,-.38874216E-4,-.122E-5,0
SL-16 R/B,1994-023B,2026-07-11T10:12:02.839104,14.15023863,.000148,70.9980,171.0292,142.1590,217.9637,0,U,23088,999,66359,-.6967966E-5,-.61E-6,0
SL-16 R/B,1994-074B,2026-07-12T00:43:15.518208,14.79522673,.00069096,97.6986,218.7149,163.7905,227.7510,0,U,23343,999,70563,.35340525E-4,.215E-5,0
